{
    "links": {
        "self": "http://www.neowsapp.com/rest/v1/neo/3774136?api_key=iIulBulltgU6a56xZRHN4H3l9WmuAYTsLGpBGhQ2"
    },
    "id": "3774136",
    "neo_reference_id": "3774136",
    "name": "(2017 HX4)",
    "designation": "2017 HX4",
    "nasa_jpl_url": "http://ssd.jpl.nasa.gov/sbdb.cgi?sstr=3774136",
    "absolute_magnitude_h": 26.2,
    "estimated_diameter": {
        "kilometers": {
            "estimated_diameter_min": 0.0152951935,
            "estimated_diameter_max": 0.0342010925
        },
        "meters": {
            "estimated_diameter_min": 15.2951935344,
            "estimated_diameter_max": 34.201092472
        },
        "miles": {
            "estimated_diameter_min": 0.0095039897,
            "estimated_diameter_max": 0.021251567
        },
        "feet": {
            "estimated_diameter_min": 50.1810827555,
            "estimated_diameter_max": 112.2083122258
        }
    },
    "is_potentially_hazardous_asteroid": false,
    "close_approach_data": [
        {
            "close_approach_date": "2017-05-08",
            "close_approach_date_full": "2017-May-08 03:46",
            "epoch_date_close_approach": 1494215160000,
            "relative_velocity": {
                "kilometers_per_second": "12.1719292467",
                "kilometers_per_hour": "43818.945287976",
                "miles_per_hour": "27227.3885318538"
            },
            "miss_distance": {
                "astronomical": "0.0091363988",
                "lunar": "3.5540591332",
                "kilometers": "1366785.799950556",
                "miles": "849281.3143914328"
            },
            "orbiting_body": "Moon"
        },
        {
            "close_approach_date": "2017-05-08",
            "close_approach_date_full": "2017-May-08 11:57",
            "epoch_date_close_approach": 1494244620000,
            "relative_velocity": {
                "kilometers_per_second": "11.9358925623",
                "kilometers_per_hour": "42969.2132244143",
                "miles_per_hour": "26699.3980726923"
            },
            "miss_distance": {
                "astronomical": "0.0095044378",
                "lunar": "3.6972263042",
                "kilometers": "1421843.650427486",
                "miles": "883492.6762758668"
            },
            "orbiting_body": "Earth"
        },
        {
            "close_approach_date": "2088-09-21",
            "close_approach_date_full": "2088-Sep-21 07:21",
            "epoch_date_close_approach": 3746589660000,
            "relative_velocity": {
                "kilometers_per_second": "23.3236475517",
                "kilometers_per_hour": "83965.1311862348",
                "miles_per_hour": "52172.6672084691"
            },
            "miss_distance": {
                "astronomical": "0.4067198913",
                "lunar": "158.2140377157",
                "kilometers": "60844429.425111531",
                "miles": "37806975.3120238878"
            },
            "orbiting_body": "Earth"
        }
    ],
    "orbital_data": {
        "orbit_id": "5",
        "orbit_determination_date": "2017-05-05 06:19:25",
        "first_observation_date": "2017-04-26",
        "last_observation_date": "2017-05-04",
        "data_arc_in_days": 8,
        "observations_used": 40,
        "orbit_uncertainty": "7",
        "minimum_orbit_intersection": ".00920434",
        "jupiter_tisserand_invariant": "3.935",
        "epoch_osculation": "2459000.5",
        "eccentricity": ".5029257249356743",
        "semi_major_axis": "1.775894525422551",
        "inclination": "5.429327792097267",
        "ascending_node_longitude": "42.66322638920965",
        "orbital_period": "864.4187519433497",
        "perihelion_distance": ".8827514838151194",
        "perihelion_argument": "237.1042732096587",
        "aphelion_distance": "2.669037567029983",
        "perihelion_time": "2458785.830214357755",
        "mean_anomaly": "89.40241365364646",
        "mean_motion": ".4164648200778421",
        "equinox": "J2000",
        "orbit_class": {
            "orbit_class_type": "APO",
            "orbit_class_description": "Near-Earth asteroid orbits which cross the Earth’s orbit similar to that of 1862 Apollo",
            "orbit_class_range": "a (semi-major axis) > 1.0 AU; q (perihelion) < 1.017 AU"
        }
    },
    "is_sentry_object": false
}